#dP2023  2 24  0  0  0.00000000      96 __u+U ITR00 FIT  IAC
## 2250 432000.00000000   900.00000000 59999 0.0000000000000
+  119   C06C07C08C09C10C11C12C13C14C16C19C20C21C22C23C24C25
+        C26C27C28C29C30C32C33C34C35C36C37C38C39C40C41C42C43
+        C44C45C46E01E02E03E04E05E07E08E09E10E11E12E14E15E18
+        E19E21E24E25E26E27E30E31E33E34E36G01G02G03G04G05G06
+        G07G08G09G10G11G12G13G14G15G16G17G18G19G20G21G22G23
+        G24G25G26G27G28G29G30G31G32J02J03J04R01R02R03R04R05
+        R07R08R09R11R12R13R14R15R16R17R18R19R20R21R22R24R25
++         9  9  8  8  9  7  7  8  8  9  8  8  7  8  7  7  7
++         7  7  7  9  7  7  8  7  8  7  8  9  9 10  7  7  7
++         7  7  9  7  7  8  8  8  7  7  7  7  6  6  7  7  7
++         7  7  7  7  7  7  6  6  7  7  6  6  7  7  6  7  7
++         7  7  7  7  6  7  7  7  7  6  6  6  6  6  7  6  7
++         6  6  7  7  7  6  6  7  7  9  8  7  8  7  6  8  8
++         8  7  7  7  7  6  6  7  6  7  7  7  8  7  7  7  8
%c M  cc GPS ccc cccc cccc cccc cccc ccccc ccccc ccccc ccccc
%c cc cc ccc ccc cccc cccc cccc cccc ccccc ccccc ccccc ccccc
%f  0.0000000  0.000000000  0.00000000000  0.000000000000000
%f  0.0000000  0.000000000  0.00000000000  0.000000000000000
%i    0    0    0    0      0      0      0      0         0
%i    0    0    0    0      0      0      0      0         0
/* INFORMATION & ANALYSIS CENTER (IAC)      ULTRA-RAPID DATA
/* S/V CLOCKS ARE ALIGNED TO GNSS TIME                      
/* G:C1WC2W R:C1PC2P E:C1XC5X C:C2IC6I J:C1CC2S             
/* PCV:IGS20_2247 OL/AL:FES2004  NONE     YN ORB:CoN CLK:CoN
*  2023 02 24 22 30  0.00000000
PC06  -2416.524587  28181.503365  31361.690428   -192.723701
PC07 -17706.716242  30315.210514 -23413.990059     65.461340
PC08  -9482.344901  40751.547190  -4312.441343    523.947356
PC09   5688.835592  32495.447937  26956.430664    810.470535
PC10 -10782.935699  30464.109963 -27020.368141      4.031903
PC11 -15782.559740   6901.297031 -21890.269193   -101.819703
PC12 -24772.737244  -7891.137533 -10100.355146    471.805229
PC13  -5153.058777  41685.615879   1417.578207    215.701449
PC14 -22631.397653  15803.941604   4322.848365    519.113617
PC16  -3934.099785  26822.972588  32574.155707    154.000135
PC19  15964.772036 -18830.799849 -12961.607453   -894.688021
PC20  25314.820101 -11206.205187   3406.325753    708.254761
PC21 -20099.986925  -3795.432102 -18971.773405   -909.788215
PC22  -3094.523533 -15956.391928 -22676.335781   -615.818102
PC23   3758.129538  26952.141908  -6171.629095   -880.878254
PC24 -15984.380288   6431.613209  21927.603590   -368.617422
PC25  -7515.029173  24759.746392  10410.488674     77.641258
PC26 -14468.385197 -12762.635572  20156.455998    -83.504885
PC27  24288.765219  13618.655819   1952.076348    101.769505
PC28  13616.327193  19962.196553 -13957.055096     74.276264
PC29   6090.830632 -14841.217033  22828.135437     85.580496
PC30  22205.314304   -828.109323  16891.780034      1.060570
PC32  20059.819427   3751.233529  19048.941369   -613.599951
PC33 -15919.190309  18955.751016  12909.540941   -871.789296
PC34 -21488.102675   1903.340843 -17698.656067    113.523995
PC35 -13234.931545 -19576.916580  14800.914107    674.799422
PC36   8489.349241 -24202.567118 -10992.965977   -603.096417
PC37  13693.644458  14477.371167 -19521.098172   -813.871428
PC38 -13716.618766  37771.525431 -12480.564800     61.033250
PC39  -9637.015687  22655.248586  34283.852110     -1.936423
PC40 -24555.368991  24595.277079 -24039.303476    -15.979190
PC41   2494.292990  16296.471762  22573.000181   -651.942451
PC42 -25470.801116  10460.826862  -4559.739302   -818.580645
PC43  -6995.483598  14498.484945 -22803.725018      8.842366
PC44 -24718.004623 -12786.336051  -1792.560093     25.848760
PC45  -3964.144307 -26842.327564   6569.243949    -64.691651
PC46  15606.262330  -8452.330327 -21553.348100    -35.741349
PE01    310.545502 -23355.971502  18181.710626   -599.964312
PE02    118.768547  23100.771090 -18504.221512     22.804596
PE03  10168.164233  16299.860441  22516.368146   -653.330882
PE04 -26651.331949  -8199.592365  -9919.714174    -65.546794
PE05 -12690.656406  14992.459106  22148.183056    -92.131684
PE07  27862.886282  -4851.416763  -8718.500585    -25.437367
PE08  26576.668692   8194.580005  10126.050685    -41.534291
PE09 -27932.478082   4742.523482   8593.635950   -847.964789
PE10 -19394.585716  -8058.407049 -20860.179552   -514.805267
PE11 -16110.265261   3526.813446 -24583.297607   1017.991006
PE12 -19367.617272 -17275.821040 -14210.065941   -434.775736
PE14  23790.013995    885.044031   3569.969639    151.664117
PE15  19323.812568  17566.468125  13956.418303     -3.408180
PE18 -28873.437473   5954.134262 -13160.760911   -351.998886
PE19  -7132.211857 -16623.524562 -23419.965145  -3152.833223
PE21  14277.760926 -25774.374737   2870.320812   -514.094544
PE24 -21395.615075  12858.198191  15866.936822  -1132.623420
PE25 -14468.644037  25688.774043  -2568.601632   -600.087951
PE26   3501.671043 -21541.160122  20002.421211     28.195153
PE27  21322.354941 -13723.697135 -15288.207635   -520.406689
PE30  15397.944927   7025.553665 -24301.208995  -1269.536294
PE31 -15733.209514  -6304.408911  24266.167221   -516.941809
PE33 -10758.143920 -27155.409269   4756.228113   -451.071810
PE34  10922.748306  27126.173917  -4586.399964    -31.832738
PE36  -3955.330619  20938.918740 -20544.889155    -17.404969
PG01  16309.855359   4241.263957  20306.759627    208.896747
PG02 -15745.206127    949.190662 -20706.032678   -618.562684
PG03  19146.700027  -7039.682509  16823.816535   -358.888889
PG04  26063.178485   -150.568731  -5407.105035    -20.252342
PG05 -12550.439422  -8604.631937 -21936.510624   -117.197200
PG06  -4155.162733 -24562.975265   9138.557376    575.984388
PG07  11328.303674 -11104.729507 -20793.925065    234.713557
PG08  25009.684910   6752.678039  -6793.960629   -110.102329
PG09  20362.647231  -8750.213853 -14744.822923   -211.986234
PG10  -9679.742771  23127.016268   8451.256439    -26.113383
PG11 -12252.426633 -23154.800506  -4479.110236   -113.368876
PG12 -19221.243582   4016.289824  17557.152901   -344.376892
PG13 -19836.575734 -13338.309636 -11959.294020    481.395888
PG14  12430.412267 -22677.839670   5746.956947    -19.078417
PG15 -25569.514578  -4258.204581  -6859.922057     16.374890
PG16   9931.811032  11706.814442 -21945.152563   -518.523870
PG17   7786.968253 -13683.116711  21838.890144    702.065246
PG18  -8564.243148  14953.272503 -20167.582139   -154.627691
PG19  -4280.702467 -15475.222021  20979.855258    282.164129
PG20  -5534.194104 -18468.091024 -18323.592749    448.650698
PG21  18936.553674  11743.036930  15634.688512    154.153999
PG22   7846.326751  15865.932433  20291.737368    433.724999
PG23 -16599.748603  20374.438633  -3253.034175      7.647945
PG24 -18677.196682  -7553.206204  17159.793723    -87.662193
PG25 -19428.580326  13927.035039  10967.014197    422.885339
PG26    171.223064  21385.739057 -15645.532260    241.731150
PG27  17446.698416  12778.673422 -15932.081253     94.530822
PG28   3486.130139  24063.582742  10662.638288     24.919362
PG29 -23017.259449   4436.451278 -12610.965782   -587.895642
PG30   2383.355352 -21787.357640 -14720.766815   -529.147585
PG31   5197.106503  24848.776247   6790.500637   -210.133222
PG32  -3684.795564  14976.078646  21780.678325   -406.211808
PJ02 -34101.187128  24309.166892  10074.754257     -1.003945
PJ03 -22751.748375  18934.415142 -25426.948010      0.457519
PJ04 -26315.512599  32866.843731   8741.854452     94.222559
PR01  19087.355397 -12546.317279 -11337.660207     23.656912
PR02   2146.490567 -11754.355829 -22497.096775    -23.232096
PR03 -15633.586633  -4603.291483 -19551.873901     73.103765
PR04 -24318.540030   4908.180371  -5870.420156    177.089491
PR05 -19812.896376  11667.955106  11032.522243    108.301445
PR07  16352.709782   4199.630053  19184.344677     50.585467
PR08  24349.633143  -5041.915374   5820.622018    -69.596310
PR09  -1385.284362  24732.002211  -6238.497545    105.925151
PR11  11505.050160  -3123.989782 -22543.781612     -9.143244
PR12   9735.998254 -20690.306928 -11307.706532     25.239543
PR13   2576.386452 -24971.240781   4519.532423    -32.381866
PR14  -7046.239147 -14266.751078  19936.283332     24.366441
PR15 -11784.807466   4240.367542  22233.517671     90.837839
PR16  -9609.638188  20556.277192  11683.138354     11.668372
PR17 -19015.590077 -17023.890924   -337.715987    607.752118
PR18 -18495.842123  -7362.920347 -15895.080390     68.490227
PR19  -9721.896470   4821.236995 -23081.688458   -223.107360
PR20   7585.530094  17778.495758 -16662.455967    -88.312260
PR21  19345.150675  16480.282728   2092.344343   -375.869890
PR22  18189.775278   7156.886802  16428.100010     72.380719
PR24  -8389.416805 -17946.494294  16091.779702    149.257145
PR25  18086.571751  17977.227105     65.931644     56.039601
EOF
